[{"OBJECT_NAME":"STARLINK-34778","OBJECT_ID":"2025-161G","EPOCH":"2026-03-09T22:26:48.226560","MEAN_MOTION":15.30144053,"ECCENTRICITY":0.00013507,"INCLINATION":53.162,"RA_OF_ASC_NODE":293.3356,"ARG_OF_PERICENTER":65.8984,"MEAN_ANOMALY":294.2157,"EPHEMERIS_TYPE":0,"CLASSIFICATION_TYPE":"U","NORAD_CAT_ID":65021,"ELEMENT_SET_NO":999,"REV_AT_EPOCH":3535,"BSTAR":-0.00024137225,"MEAN_MOTION_DOT":-7.488e-5,"MEAN_MOTION_DDOT":0},{"OBJECT_NAME":"FENGYUN 1C DEB","OBJECT_ID":"1999-025CMP","EPOCH":"2026-03-08T08:37:00.789888","MEAN_MOTION":14.96815474,"ECCENTRICITY":0.01497126,"INCLINATION":98.9176,"RA_OF_ASC_NODE":115.7276,"ARG_OF_PERICENTER":148.4975,"MEAN_ANOMALY":212.5316,"EPHEMERIS_TYPE":0,"CLASSIFICATION_TYPE":"U","NORAD_CAT_ID":31938,"ELEMENT_SET_NO":999,"REV_AT_EPOCH":409,"BSTAR":0.00073670691,"MEAN_MOTION_DOT":0.00010536,"MEAN_MOTION_DDOT":0}]
